GOES 1 (SMS-C) [-]      
1 08366U 75100A   19139.56542205 -.00000113  00000-0  00000+0 0  9993
2 08366  10.7839 309.9547 0003440 343.3923  40.7631  1.00317727159282
GOES 2 [-]              
1 10061U 77048A   19139.23434604 -.00000134  00000-0  00000+0 0  9991
2 10061  12.1624 319.6029 0016596 351.1832  16.0241  0.99400816 97812
GOES 3 [-]              
1 10953U 78062A   19139.23600353 -.00000085  00000-0  00000+0 0  9999
2 10953  12.3787 323.4286 0004092  20.6949 351.9182  0.99363305102900
GOES 4 [-]              
1 11964U 80074A   19139.06842337  .00000001  00000-0  00000+0 0  9996
2 11964  13.2285 327.1676 0035929  34.6842 152.8938  0.99227492101968
GOES 5 [-]              
1 12472U 81049A   19139.55977998 -.00000083  00000-0  00000+0 0  9991
2 12472  13.6535 337.6455 0003448 336.6733  10.9546  1.00338900 97032
GOES 6 [-]              
1 14050U 83041A   19139.13925890 -.00000098  00000-0  00000+0 0  9993
2 14050  14.0008 342.6374 0002538  25.7769 167.4077  1.00326596190125
GOES 7 [-]              
1 17561U 87022A   19139.44022274 -.00000312  00000-0  00000+0 0  9993
2 17561  14.9952 358.6910 0007743 353.1368   1.4241  0.99903996101158
GOES 8 [-]              
1 23051U 94022A   19137.51646394 -.00000298  00000-0  00000+0 0  9996
2 23051  12.1654  32.7269 0007362 312.6137 225.1942  0.98907953 98532
GOES 9 [-]              
1 23581U 95025A   19138.61017597 -.00000178  00000-0  00000+0 0  9994
2 23581  11.6568  32.4997 0004700  26.3119 152.3856  0.98800162 87206
GOES 10 [-]             
1 24786U 97019A   19139.21585203 -.00000077  00000-0  00000+0 0  9996
2 24786  10.1493  37.8250 0025544 182.1832   7.5495  0.99121545 80438
GOES 11 [-]             
1 26352U 00022A   19139.32611821 -.00000139  00000-0  00000+0 0  9992
2 26352   6.3657  67.9708 0002397 242.2359 150.3191  0.99041515 69382
GOES 12 [-]             
1 26871U 01031A   19139.14632649 -.00000204  00000-0  00000+0 0  9993
2 26871   7.5567  55.2431 0008532 271.0952 318.4879  0.99140700 65090
GOES 13 [B]             
1 29155U 06018A   19139.50844469 -.00000294  00000-0  00000+0 0  9995
2 29155   0.2679 284.4073 0012634 139.1630 296.6441  1.00274797 47599
GOES 14 [S]             
1 35491U 09033A   19139.56680759 -.00000102  00000-0  00000+0 0  9999
2 35491   0.2182 103.8643 0006440 121.3893 111.2963  1.00271001 36221
GOES 15 [+]             
1 36411U 10008A   19139.46785403  .00000046  00000-0  00000+0 0  9993
2 36411   0.1504 101.1261 0002089 345.7485 189.9811  1.00269498 33736
GOES 16 [+]             
1 41866U 16071A   19139.51627372 -.00000259  00000-0  00000+0 0  9992
2 41866   0.0042  51.6297 0001009  37.9916 257.9491  1.00272613  9185
GOES-S [+]              
1 43226U 18022A   19139.57968903  .00000087  00000-0  00000+0 0  9994
2 43226   0.0375 103.0820 0002522 312.3655 252.9946  1.00271758  4501
